CCSDS_OMM_VERS = 2.0
CREATION_DATE  = 
ORIGINATOR     = 

OBJECT_NAME    = STARLINK-36441
OBJECT_ID      = 2026-008AA
CENTER_NAME    = EARTH
REF_FRAME      = TEME
TIME_SYSTEM    = UTC
MEAN_ELEMENT_THEORY = SGP/SGP4

EPOCH          = 2026-02-01T22:00:01.999584
MEAN_MOTION    = 15.73171399
ECCENTRICITY   = .00014066
INCLINATION    = 43.0000
RA_OF_ASC_NODE = 50.2154
ARG_OF_PERICENTER = 263.2917
MEAN_ANOMALY   = 220.7004

EPHEMERIS_TYPE = 0
CLASSIFICATION_TYPE = U
NORAD_CAT_ID   = 67469
ELEMENT_SET_NO = 999
REV_AT_EPOCH   = 404
BSTAR          = -.16692834E-1
MEAN_MOTION_DOT = -.2077168E-1
MEAN_MOTION_DDOT = 0

CCSDS_OMM_VERS = 2.0
CREATION_DATE  = 
ORIGINATOR     = 

OBJECT_NAME    = STARLINK-36454
OBJECT_ID      = 2026-008AB
CENTER_NAME    = EARTH
REF_FRAME      = TEME
TIME_SYSTEM    = UTC
MEAN_ELEMENT_THEORY = SGP/SGP4

EPOCH          = 2026-02-01T22:00:01.999584
MEAN_MOTION    = 15.74913684
ECCENTRICITY   = .00012146
INCLINATION    = 42.9997
RA_OF_ASC_NODE = 50.2074
ARG_OF_PERICENTER = 270.4874
MEAN_ANOMALY   = 216.8192

EPHEMERIS_TYPE = 0
CLASSIFICATION_TYPE = U
NORAD_CAT_ID   = 67470
ELEMENT_SET_NO = 999
REV_AT_EPOCH   = 404
BSTAR          = -.1573162E-1
MEAN_MOTION_DOT = -.2108114E-1
MEAN_MOTION_DDOT = 0

CCSDS_OMM_VERS = 2.0
CREATION_DATE  = 
ORIGINATOR     = 

OBJECT_NAME    = STARLINK-36334
OBJECT_ID      = 2026-008AC
CENTER_NAME    = EARTH
REF_FRAME      = TEME
TIME_SYSTEM    = UTC
MEAN_ELEMENT_THEORY = SGP/SGP4

EPOCH          = 2026-02-01T22:00:01.999584
MEAN_MOTION    = 15.75026079
ECCENTRICITY   = .00010422
INCLINATION    = 42.9999
RA_OF_ASC_NODE = 50.2176
ARG_OF_PERICENTER = 250.9735
MEAN_ANOMALY   = 232.5329

EPHEMERIS_TYPE = 0
CLASSIFICATION_TYPE = U
NORAD_CAT_ID   = 67471
ELEMENT_SET_NO = 999
REV_AT_EPOCH   = 404
BSTAR          = .10473352E-3
MEAN_MOTION_DOT = .15631E-3
MEAN_MOTION_DDOT = 0

CCSDS_OMM_VERS = 2.0
CREATION_DATE  = 
ORIGINATOR     = 

OBJECT_NAME    = STARLINK-36269
OBJECT_ID      = 2026-008AD
CENTER_NAME    = EARTH
REF_FRAME      = TEME
TIME_SYSTEM    = UTC
MEAN_ELEMENT_THEORY = SGP/SGP4

EPOCH          = 2026-02-01T22:00:01.999584
MEAN_MOTION    = 15.75270680
ECCENTRICITY   = .00010289
INCLINATION    = 42.9999
RA_OF_ASC_NODE = 50.2022
ARG_OF_PERICENTER = 256.4280
MEAN_ANOMALY   = 232.7731

EPHEMERIS_TYPE = 0
CLASSIFICATION_TYPE = U
NORAD_CAT_ID   = 67472
ELEMENT_SET_NO = 999
REV_AT_EPOCH   = 406
BSTAR          = -.44228768E-2
MEAN_MOTION_DOT = -.637277E-2
MEAN_MOTION_DDOT = 0

CCSDS_OMM_VERS = 2.0
CREATION_DATE  = 
ORIGINATOR     = 

OBJECT_NAME    = STARLINK-36408
OBJECT_ID      = 2026-008AE
CENTER_NAME    = EARTH
REF_FRAME      = TEME
TIME_SYSTEM    = UTC
MEAN_ELEMENT_THEORY = SGP/SGP4

EPOCH          = 2026-02-01T22:00:01.999584
MEAN_MOTION    = 15.73887258
ECCENTRICITY   = .00012059
INCLINATION    = 42.9998
RA_OF_ASC_NODE = 50.1929
ARG_OF_PERICENTER = 265.8283
MEAN_ANOMALY   = 226.7093

EPHEMERIS_TYPE = 0
CLASSIFICATION_TYPE = U
NORAD_CAT_ID   = 67473
ELEMENT_SET_NO = 999
REV_AT_EPOCH   = 406
BSTAR          = -.16176856E-1
MEAN_MOTION_DOT = -.2076616E-1
MEAN_MOTION_DDOT = 0

CCSDS_OMM_VERS = 2.0
CREATION_DATE  = 
ORIGINATOR     = 

OBJECT_NAME    = ALSAT-3A
OBJECT_ID      = 2026-009A
CENTER_NAME    = EARTH
REF_FRAME      = TEME
TIME_SYSTEM    = UTC
MEAN_ELEMENT_THEORY = SGP/SGP4

EPOCH          = 2026-02-01T22:44:22.734240
MEAN_MOTION    = 15.23328632
ECCENTRICITY   = .00119205
INCLINATION    = 97.4696
RA_OF_ASC_NODE = 107.6398
ARG_OF_PERICENTER = 193.6374
MEAN_ANOMALY   = 166.4542

EPHEMERIS_TYPE = 0
CLASSIFICATION_TYPE = U
NORAD_CAT_ID   = 67474
ELEMENT_SET_NO = 999
REV_AT_EPOCH   = 268
BSTAR          = .2918178E-3
MEAN_MOTION_DOT = .6871E-4
MEAN_MOTION_DDOT = 0

CCSDS_OMM_VERS = 2.0
CREATION_DATE  = 
ORIGINATOR     = 

OBJECT_NAME    = CZ-2C R/B
OBJECT_ID      = 2026-009B
CENTER_NAME    = EARTH
REF_FRAME      = TEME
TIME_SYSTEM    = UTC
MEAN_ELEMENT_THEORY = SGP/SGP4

EPOCH          = 2026-02-01T22:06:51.750720
MEAN_MOTION    = 15.03068555
ECCENTRICITY   = .00999453
INCLINATION    = 97.1784
RA_OF_ASC_NODE = 106.0948
ARG_OF_PERICENTER = 161.2393
MEAN_ANOMALY   = 199.2560

EPHEMERIS_TYPE = 0
CLASSIFICATION_TYPE = U
NORAD_CAT_ID   = 67475
ELEMENT_SET_NO = 999
REV_AT_EPOCH   = 270
BSTAR          = .22141342E-3
MEAN_MOTION_DOT = .3268E-4
MEAN_MOTION_DDOT = 0

CCSDS_OMM_VERS = 2.0
CREATION_DATE  = 
ORIGINATOR     = 

OBJECT_NAME    = TIANQI-37
OBJECT_ID      = 2026-010A
CENTER_NAME    = EARTH
REF_FRAME      = TEME
TIME_SYSTEM    = UTC
MEAN_ELEMENT_THEORY = SGP/SGP4

EPOCH          = 2026-02-01T21:59:46.564224
MEAN_MOTION    = 14.13521550
ECCENTRICITY   = .00130979
INCLINATION    = 44.9835
RA_OF_ASC_NODE = 325.6373
ARG_OF_PERICENTER = 37.6126
MEAN_ANOMALY   = 322.5626

EPHEMERIS_TYPE = 0
CLASSIFICATION_TYPE = U
NORAD_CAT_ID   = 67476
ELEMENT_SET_NO = 999
REV_AT_EPOCH   = 242
BSTAR          = .32311891E-3
MEAN_MOTION_DOT = .48E-5
MEAN_MOTION_DDOT = 0

CCSDS_OMM_VERS = 2.0
CREATION_DATE  = 
ORIGINATOR     = 

OBJECT_NAME    = TIANQI-38
OBJECT_ID      = 2026-010B
CENTER_NAME    = EARTH
REF_FRAME      = TEME
TIME_SYSTEM    = UTC
MEAN_ELEMENT_THEORY = SGP/SGP4

EPOCH          = 2026-02-01T21:55:51.056832
MEAN_MOTION    = 14.13898538
ECCENTRICITY   = .00118786
INCLINATION    = 44.9797
RA_OF_ASC_NODE = 325.6162
ARG_OF_PERICENTER = 42.8161
MEAN_ANOMALY   = 317.3601

EPHEMERIS_TYPE = 0
CLASSIFICATION_TYPE = U
NORAD_CAT_ID   = 67477
ELEMENT_SET_NO = 999
REV_AT_EPOCH   = 242
BSTAR          = .31442971E-3
MEAN_MOTION_DOT = .467E-5
MEAN_MOTION_DDOT = 0

CCSDS_OMM_VERS = 2.0
CREATION_DATE  = 
ORIGINATOR     = 

OBJECT_NAME    = TIANQI-39
OBJECT_ID      = 2026-010C
CENTER_NAME    = EARTH
REF_FRAME      = TEME
TIME_SYSTEM    = UTC
MEAN_ELEMENT_THEORY = SGP/SGP4

EPOCH          = 2026-01-30T08:53:02.103072
MEAN_MOTION    = 14.13517056
ECCENTRICITY   = .0014472
INCLINATION    = 44.9851
RA_OF_ASC_NODE = 337.2202
ARG_OF_PERICENTER = 36.2785
MEAN_ANOMALY   = 323.9032

EPHEMERIS_TYPE = 0
CLASSIFICATION_TYPE = U
NORAD_CAT_ID   = 67478
ELEMENT_SET_NO = 999
REV_AT_EPOCH   = 206
BSTAR          = .25056E-3
MEAN_MOTION_DOT = .342E-5
MEAN_MOTION_DDOT = 0

CCSDS_OMM_VERS = 2.0
CREATION_DATE  = 
ORIGINATOR     = 

OBJECT_NAME    = TIANQI-40
OBJECT_ID      = 2026-010D
CENTER_NAME    = EARTH
REF_FRAME      = TEME
TIME_SYSTEM    = UTC
MEAN_ELEMENT_THEORY = SGP/SGP4

EPOCH          = 2026-01-28T21:15:30.566880
MEAN_MOTION    = 14.13986611
ECCENTRICITY   = .0013061
INCLINATION    = 44.9851
RA_OF_ASC_NODE = 343.9821
ARG_OF_PERICENTER = 21.9564
MEAN_ANOMALY   = 338.1832

EPHEMERIS_TYPE = 0
CLASSIFICATION_TYPE = U
NORAD_CAT_ID   = 67479
ELEMENT_SET_NO = 999
REV_AT_EPOCH   = 185
BSTAR          = .23704672E-3
MEAN_MOTION_DOT = .32E-5
MEAN_MOTION_DDOT = 0

CCSDS_OMM_VERS = 2.0
CREATION_DATE  = 
ORIGINATOR     = 

OBJECT_NAME    = SZ-20 MODULE
OBJECT_ID      = 2025-082C
CENTER_NAME    = EARTH
REF_FRAME      = TEME
TIME_SYSTEM    = UTC
MEAN_ELEMENT_THEORY = SGP/SGP4

EPOCH          = 2026-02-01T18:53:45.873600
MEAN_MOTION    = 15.62154200
ECCENTRICITY   = .00061182
INCLINATION    = 41.4790
RA_OF_ASC_NODE = 66.2090
ARG_OF_PERICENTER = 71.1987
MEAN_ANOMALY   = 288.9516

EPHEMERIS_TYPE = 0
CLASSIFICATION_TYPE = U
NORAD_CAT_ID   = 67481
ELEMENT_SET_NO = 999
REV_AT_EPOCH   = 27200
BSTAR          = .23668745E-3
MEAN_MOTION_DOT = .2112E-3
MEAN_MOTION_DDOT = 0

CCSDS_OMM_VERS = 2.0
CREATION_DATE  = 
ORIGINATOR     = 

OBJECT_NAME    = ION SCV-021
OBJECT_ID      = 2025-276DT
CENTER_NAME    = EARTH
REF_FRAME      = TEME
TIME_SYSTEM    = UTC
MEAN_ELEMENT_THEORY = SGP/SGP4

EPOCH          = 2026-02-01T23:36:15.520608
MEAN_MOTION    = 14.97376143
ECCENTRICITY   = .00112935
INCLINATION    = 97.5404
RA_OF_ASC_NODE = 108.3390
ARG_OF_PERICENTER = 215.7488
MEAN_ANOMALY   = 144.2979

EPHEMERIS_TYPE = 0
CLASSIFICATION_TYPE = U
NORAD_CAT_ID   = 67483
ELEMENT_SET_NO = 999
REV_AT_EPOCH   = 237
BSTAR          = .83142443E-4
MEAN_MOTION_DOT = .911E-5
MEAN_MOTION_DDOT = 0

CCSDS_OMM_VERS = 2.0
CREATION_DATE  = 
ORIGINATOR     = 

OBJECT_NAME    = STARLINK-36551
OBJECT_ID      = 2026-012A
CENTER_NAME    = EARTH
REF_FRAME      = TEME
TIME_SYSTEM    = UTC
MEAN_ELEMENT_THEORY = SGP/SGP4

EPOCH          = 2026-02-01T22:00:01.999584
MEAN_MOTION    = 15.83680691
ECCENTRICITY   = .00011499
INCLINATION    = 42.9966
RA_OF_ASC_NODE = 160.7739
ARG_OF_PERICENTER = 279.1204
MEAN_ANOMALY   = 353.9601

EPHEMERIS_TYPE = 0
CLASSIFICATION_TYPE = U
NORAD_CAT_ID   = 67493
ELEMENT_SET_NO = 999
REV_AT_EPOCH   = 331
BSTAR          = -.83328158E-2
MEAN_MOTION_DOT = -.1652944E-1
MEAN_MOTION_DDOT = 0

CCSDS_OMM_VERS = 2.0
CREATION_DATE  = 
ORIGINATOR     = 

OBJECT_NAME    = STARLINK-36396
OBJECT_ID      = 2026-012B
CENTER_NAME    = EARTH
REF_FRAME      = TEME
TIME_SYSTEM    = UTC
MEAN_ELEMENT_THEORY = SGP/SGP4

EPOCH          = 2026-02-01T22:00:01.999584
MEAN_MOTION    = 15.80744170
ECCENTRICITY   = .00014442
INCLINATION    = 42.9965
RA_OF_ASC_NODE = 160.7963
ARG_OF_PERICENTER = 272.3995
MEAN_ANOMALY   = 351.6659

EPHEMERIS_TYPE = 0
CLASSIFICATION_TYPE = U
NORAD_CAT_ID   = 67494
ELEMENT_SET_NO = 999
REV_AT_EPOCH   = 331
BSTAR          = -.1405184E-1
MEAN_MOTION_DOT = -.24052E-1
MEAN_MOTION_DDOT = 0

